OBJECT_NAME,OBJECT_ID,EPOCH,MEAN_MOTION,ECCENTRICITY,INCLINATION,RA_OF_ASC_NODE,ARG_OF_PERICENTER,MEAN_ANOMALY,EPHEMERIS_TYPE,CLASSIFICATION_TYPE,NORAD_CAT_ID,ELEMENT_SET_NO,REV_AT_EPOCH,BSTAR,MEAN_MOTION_DOT,MEAN_MOTION_DDOT
PAKSAT-1R,2011-042A,2026-07-04T21:02:56.187744,1.00275590,.00031665,0.7320,84.4489,355.7079,196.4600,0,U,37779,999,5465,0,.166E-5,0
SES-2,2011-049A,2026-07-04T22:01:44.184000,1.00271949,.00029127,0.1014,92.6189,10.0338,63.7076,0,U,37809,999,5414,0,-.183E-5,0
ARABSAT-5C,2011-049B,2026-07-04T20:50:39.259680,1.00273051,.00034781,0.0555,28.3438,92.7261,134.4529,0,U,37810,999,5421,0,.136E-5,0
EUTELSAT 7 WEST A,2011-051A,2026-07-04T22:24:25.805664,1.00271422,.00046487,0.0612,12.2666,102.6494,136.8130,0,U,37816,999,5405,0,-.48E-6,0
QUETZSAT 1,2011-054A,2026-07-02T13:36:35.681760,1.00271106,.0002997,0.0341,293.4838,173.6787,300.5957,0,U,37826,999,5002,0,-.231E-5,0
INTELSAT 18 (IS-18),2011-056A,2026-07-04T21:35:15.384768,1.00271909,.00019659,0.0214,287.8621,183.8405,315.0086,0,U,37834,999,5398,0,.66E-6,0
EUTELSAT 16A,2011-057A,2026-07-04T20:48:06.117408,1.00269798,.00057993,0.0394,345.8065,114.5211,150.5614,0,U,37836,999,751,0,.116E-5,0
VIASAT-1,2011-059A,2026-07-02T20:31:30.243360,1.00270964,.00023173,0.0211,26.3466,77.4105,9.9113,0,U,37843,999,4748,0,0,0
ASIASAT 7,2011-069A,2026-07-04T22:56:36.712608,1.00270407,.00013668,0.0125,318.0360,125.9217,288.6709,0,U,37933,999,4503,0,-.321E-5,0
BEIDOU-2 IGSO-5,2011-073A,2026-07-02T17:30:18.330912,1.00270596,.01145273,47.6496,271.3544,222.0502,141.5350,0,U,37948,999,5329,0,-.128E-5,0
LUCH-5A,2011-074B,2026-07-04T21:31:30.743904,1.00272677,.00026538,8.7957,73.5495,47.6496,291.5283,0,U,37951,999,5322,0,-.4E-6,0
NIGCOMSAT 1R,2011-077A,2026-07-04T21:09:20.261664,1.00272536,.00025242,0.0072,214.2675,139.4073,289.0245,0,U,38014,999,5313,0,.158E-5,0
WGS F4 (USA 233),2012-003A,2026-07-02T19:10:59.943360,1.00267905,.00016231,0.0212,33.4355,91.9508,171.6061,0,U,38070,999,4430,0,0,0
SES-4,2012-007A,2026-07-02T08:44:38.700384,1.00271083,.0002404,0.0229,41.5467,57.1982,290.8171,0,U,38087,999,5237,0,-.158E-5,0
BEIDOU-2 G5,2012-008A,2026-07-04T22:11:00.316608,1.00268190,.0007571,3.6153,69.5917,274.9939,329.8548,0,U,38091,999,5254,0,.69E-6,0
MUOS-1,2012-009A,2026-07-04T16:49:32.264832,1.00272460,.00574553,5.5111,47.1350,2.8517,25.1364,0,U,38093,999,5262,0,-.117E-5,0
INTELSAT 22 (IS-22),2012-011A,2026-07-04T22:47:07.621728,1.00271406,.00017111,0.0212,56.1947,44.5275,236.0982,0,U,38098,999,736,0,-.46E-6,0
APSTAR-7,2012-013A,2026-07-04T21:05:40.720992,1.00271877,.00033154,0.0329,88.6242,22.5390,204.6549,0,U,38107,999,5198,0,-.89E-6,0
YAHSAT 1B,2012-016A,2026-07-02T05:39:12.553344,1.00267795,.0003263,0.0892,88.9189,30.5528,293.2016,0,U,38245,999,4575,0,.137E-5,0
AEHF-2 (USA 235),2012-019A,2026-07-04T22:21:48.556800,1.00272986,.00021659,6.6906,57.3580,45.4925,139.0126,0,U,38254,999,716,0,-.125E-5,0
JCSAT-13,2012-023A,2026-07-04T23:01:51.210336,1.00273063,.00028567,0.0132,55.7318,57.5424,279.1546,0,U,38331,999,5171,0,-.343E-5,0
NIMIQ 6,2012-026A,2026-07-04T13:27:15.428736,1.00271732,.00028172,0.0359,278.3033,187.7904,287.1914,0,U,38342,999,5058,0,-.161E-5,0
ZHONGXING-2A,2012-028A,2026-07-04T22:54:36.904320,1.00270699,.0001969,1.4979,83.6699,24.2333,256.9443,0,U,38352,999,5147,0,-.28E-5,0
INTELSAT 19 (IS-19),2012-030A,2026-07-04T19:48:31.096224,1.00271571,.00033193,0.0179,33.1672,81.0339,271.7575,0,U,38356,999,5062,0,-.44E-6,0
ECHOSTAR 17,2012-035A,2026-07-03T21:58:48.982080,1.00271043,.00019431,0.0187,28.8424,71.1266,44.5707,0,U,38551,999,5123,0,-.64E-6,0
METEOSAT-10 (MSG-3),2012-035B,2026-07-04T20:43:56.112096,1.00269637,.00014421,4.7106,60.9319,17.2470,155.7782,0,U,38552,999,5103,0,.4E-7,0
SES-5,2012-036A,2026-07-02T15:43:01.322688,1.00270830,.00022676,0.0450,320.1883,138.1529,63.0821,0,U,38652,999,4461,0,.44E-6,0
INTELSAT 20 (IS-20),2012-043A,2026-07-04T21:39:51.946848,1.00270899,.00012038,0.0095,48.1941,130.2172,137.9475,0,U,38740,999,5092,0,-.11E-6,0
HYLAS 2,2012-043B,2026-07-04T22:05:51.288864,1.00271794,.00026064,2.4701,80.8633,43.6070,57.3454,0,U,38741,999,5095,0,-.246E-5,0
INTELSAT 21 (IS-21),2012-045A,2026-07-04T20:27:19.875168,1.00271606,.00018446,0.0200,292.6447,187.1633,51.8903,0,U,38749,999,5070,0,-.272E-5,0
ASTRA 2F,2012-051A,2026-07-04T22:34:38.818848,1.00273198,.0002505,0.0656,251.0642,285.4313,113.3151,0,U,38778,999,4131,0,.163E-5,0
