PAKSAT-1R               
1 37779U 11042A   26185.87703921  .00000166  00000+0  00000+0 0  9991
2 37779   0.7320  84.4489 0003166 355.7079 196.4600  1.00275590 54651
SES-2                   
1 37809U 11049A   26185.91787250 -.00000183  00000+0  00000+0 0  9994
2 37809   0.1014  92.6189 0002912  10.0338  63.7076  1.00271949 54145
ARABSAT-5C              
1 37810U 11049B   26185.86850995  .00000136  00000+0  00000+0 0  9994
2 37810   0.0555  28.3438 0003478  92.7261 134.4529  1.00273051 54212
EUTELSAT 7 WEST A       
1 37816U 11051A   26185.93363201 -.00000048  00000+0  00000+0 0  9993
2 37816   0.0612  12.2666 0004648 102.6494 136.8130  1.00271422 54052
QUETZSAT 1              
1 37826U 11054A   26183.56707965 -.00000231  00000+0  00000+0 0  9997
2 37826   0.0341 293.4838 0002997 173.6787 300.5957  1.00271106 50023
INTELSAT 18 (IS-18)     
1 37834U 11056A   26185.89948362  .00000066  00000+0  00000+0 0  9999
2 37834   0.0214 287.8621 0001965 183.8405 315.0086  1.00271909 53985
EUTELSAT 16A            
1 37836U 11057A   26185.86673747  .00000116  00000+0  00000+0 0  9997
2 37836   0.0394 345.8065 0005799 114.5211 150.5614  1.00269798  7518
VIASAT-1                
1 37843U 11059A   26183.85521115  .00000000  00000+0  00000+0 0  9997
2 37843   0.0211  26.3466 0002317  77.4105   9.9113  1.00270964 47480
ASIASAT 7               
1 37933U 11069A   26185.95598047 -.00000321  00000+0  00000+0 0  9996
2 37933   0.0125 318.0360 0001366 125.9217 288.6709  1.00270407 45032
BEIDOU-2 IGSO-5         
1 37948U 11073A   26183.72937883 -.00000128  00000+0  00000+0 0  9990
2 37948  47.6496 271.3544 0114527 222.0502 141.5350  1.00270596 53296
LUCH-5A                 
1 37951U 11074B   26185.89688361 -.00000040  00000+0  00000+0 0  9992
2 37951   8.7957  73.5495 0002653  47.6496 291.5283  1.00272677 53222
NIGCOMSAT 1R            
1 38014U 11077A   26185.88148451  .00000158  00000+0  00000+0 0  9995
2 38014   0.0072 214.2675 0002524 139.4073 289.0245  1.00272536 53132
WGS F4 (USA 233)        
1 38070U 12003A   26183.79930490  .00000000  00000+0  00000+0 0  9993
2 38070   0.0212  33.4355 0001623  91.9508 171.6061  1.00267905 44305
SES-4                   
1 38087U 12007A   26183.36433681 -.00000158  00000+0  00000+0 0  9993
2 38087   0.0229  41.5467 0002404  57.1982 290.8171  1.00271083 52377
BEIDOU-2 G5             
1 38091U 12008A   26185.92430922  .00000069  00000+0  00000+0 0  9998
2 38091   3.6153  69.5917 0007571 274.9939 329.8548  1.00268190 52543
MUOS-1                  
1 38093U 12009A   26185.70106788 -.00000117  00000+0  00000+0 0  9992
2 38093   5.5111  47.1350 0057455   2.8517  25.1364  1.00272460 52625
INTELSAT 22 (IS-22)     
1 38098U 12011A   26185.94939377 -.00000046  00000+0  00000+0 0  9995
2 38098   0.0212  56.1947 0001711  44.5275 236.0982  1.00271406  7361
APSTAR-7                
1 38107U 12013A   26185.87894353 -.00000089  00000+0  00000+0 0  9991
2 38107   0.0329  88.6242 0003315  22.5390 204.6549  1.00271877 51984
YAHSAT 1B               
1 38245U 12016A   26183.23556196  .00000137  00000+0  00000+0 0  9998
2 38245   0.0892  88.9189 0003263  30.5528 293.2016  1.00267795 45754
AEHF-2 (USA 235)        
1 38254U 12019A   26185.93181200 -.00000125  00000+0  00000+0 0  9998
2 38254   6.6906  57.3580 0002165  45.4925 139.0126  1.00272986  7163
JCSAT-13                
1 38331U 12023A   26185.95962049 -.00000343  00000+0  00000+0 0  9991
2 38331   0.0132  55.7318 0002856  57.5424 279.1546  1.00273063 51713
NIMIQ 6                 
1 38342U 12026A   26185.56059524 -.00000161  00000+0  00000+0 0  9996
2 38342   0.0359 278.3033 0002817 187.7904 287.1914  1.00271732 50582
ZHONGXING-2A            
1 38352U 12028A   26185.95459380 -.00000280  00000+0  00000+0 0  9998
2 38352   1.4979  83.6699 0001969  24.2333 256.9443  1.00270699 51470
INTELSAT 19 (IS-19)     
1 38356U 12030A   26185.82535991 -.00000044  00000+0  00000+0 0  9992
2 38356   0.0179  33.1672 0003319  81.0339 271.7575  1.00271571 50627
ECHOSTAR 17             
1 38551U 12035A   26184.91584470 -.00000064  00000+0  00000+0 0  9991
2 38551   0.0187  28.8424 0001943  71.1266  44.5707  1.00271043 51234
METEOSAT-10 (MSG-3)     
1 38552U 12035B   26185.86384389  .00000004  00000+0  00000+0 0  9997
2 38552   4.7106  60.9319 0001442  17.2470 155.7782  1.00269637 51031
SES-5                   
1 38652U 12036A   26183.65487642  .00000044  00000+0  00000+0 0  9994
2 38652   0.0450 320.1883 0002267 138.1529  63.0821  1.00270830 44612
INTELSAT 20 (IS-20)     
1 38740U 12043A   26185.90268457 -.00000011  00000+0  00000+0 0  9996
2 38740   0.0095  48.1941 0001203 130.2172 137.9475  1.00270899 50925
HYLAS 2                 
1 38741U 12043B   26185.92073251 -.00000246  00000+0  00000+0 0  9995
2 38741   2.4701  80.8633 0002606  43.6070  57.3454  1.00271794 50959
INTELSAT 21 (IS-21)     
1 38749U 12045A   26185.85231337 -.00000272  00000+0  00000+0 0  9997
2 38749   0.0200 292.6447 0001844 187.1633  51.8903  1.00271606 50706
ASTRA 2F                
1 38778U 12051A   26185.94072707  .00000163  00000+0  00000+0 0  9998
2 38778   0.0656 251.0642 0002505 285.4313 113.3151  1.00273198 41315
